NORAD_CAT_ID,OBJECT_NAME,OBJECT_TYPE,EPOCH,MEAN_MOTION,ECCENTRICITY,INCLINATION,RA_OF_ASC_NODE,ARG_OF_PERICENTER,MEAN_ANOMALY,BSTAR,MEAN_MOTION_DOT,MEAN_MOTION_DDOT,TLE_LINE0,TLE_LINE1,TLE_LINE2,SEMIMAJOR_AXIS,PERIOD,APOGEE,PERIGEE,DECAYED
49741.0,STARLINK-3244,PAYLOAD,2022-07-16 11:05:30,15.08849786,0.0001563,53.216,9.7243,69.5715,290.5444,0.00034602,5.225e-05,0.0,0 STARLINK-3244,1 49741U 21115T   22197.46215910  .00005225  00000-0  34602-3 0  9996,2 49741  53.2160   9.7243 0001563  69.5715 290.5444 15.08849786 34413,6917.85,95.437,540.797,538.634,0.0
49741.0,STARLINK-3244,PAYLOAD,2022-07-16 19:02:26,15.0885242,0.0001569,53.2161,8.2383,68.8073,291.3087,0.00029689,4.442e-05,0.0,0 STARLINK-3244,1 49741U 21115T   22197.79335779  .00004442  00000-0  29689-3 0  9997,2 49741  53.2161   8.2383 0001569  68.8073 291.3087 15.08852420 35577,6917.842,95.437,540.793,538.622,0.0
49741.0,STARLINK-3244,PAYLOAD,2022-07-16 20:37:49,15.08853313,0.0001505,53.216,7.9404,69.0745,291.0409,0.0003452,5.212e-05,0.0,0 STARLINK-3244,1 49741U 21115T   22197.85959842  .00005212  00000-0  34520-3 0  9993,2 49741  53.2160   7.9404 0001505  69.0745 291.0409 15.08853313 34470,6917.84,95.437,540.746,538.664,0.0
49741.0,STARLINK-3244,PAYLOAD,2022-07-17 10:56:17,15.08846302,0.0001506,53.2158,5.2636,68.5983,291.517,-6.0318e-06,-3.84e-06,0.0,0 STARLINK-3244,1 49741U 21115T   22198.45575567 -.00000384  00000-0 -60318-5 0  9991,2 49741  53.2158   5.2636 0001506  68.5983 291.5170 15.08846302 35677,6917.861,95.437,540.768,538.684,0.0
49741.0,STARLINK-3244,PAYLOAD,2022-07-17 18:53:12,15.08850514,0.0001471,53.2163,3.7774,67.6183,292.4965,0.00016776,2.384e-05,0.0,0 STARLINK-3244,1 49741U 21115T   22198.78695401  .00002384  00000-0  16776-3 0  9994,2 49741  53.2163   3.7774 0001471  67.6183 292.4965 15.08850514 34617,6917.848000000001,95.437,540.731,538.696,0.0
49741.0,STARLINK-3244,PAYLOAD,2022-07-18 04:25:31,15.08839222,0.0001448,53.2164,1.9933,65.5159,294.5984,-8.0705e-05,-1.572e-05,0.0,0 STARLINK-3244,1 49741U 21115T   22199.18439707 -.00001572  00000-0 -80705-4 0  9998,2 49741  53.2164   1.9933 0001448  65.5159 294.5984 15.08839222 35785,6917.8830000000025,95.438,540.749,538.746,0.0
49741.0,STARLINK-3244,PAYLOAD,2022-07-18 17:08:36,15.08848747,0.0001438,53.2163,359.6139,64.5087,295.6054,0.00014801,2.069e-05,0.0,0 STARLINK-3244,1 49741U 21115T   22199.71431396  .00002069  00000-0  14801-3 0  9996,2 49741  53.2163 359.6139 0001438  64.5087 295.6054 15.08848747 35864,6917.854,95.437,540.7130000000002,538.724,0.0
49741.0,STARLINK-3244,PAYLOAD,2022-07-19 04:16:18,15.08840951,0.0001488,53.2165,357.5317,61.3967,298.7175,8.418799999999999e-05,1.052e-05,0.0,0 STARLINK-3244,1 49741U 21115T   22200.17799707  .00001052  00000-0  84188-4 0  9999,2 49741  53.2165 357.5317 0001488  61.3967 298.7175 15.08840951 35933,6917.877,95.437,540.7719999999998,538.7130000000002,0.0
49741.0,STARLINK-3244,PAYLOAD,2022-07-19 20:10:09,15.08858642,0.000123,53.2164,354.5585,57.6372,302.4739,0.0005121,7.876e-05,0.0,0 STARLINK-3244,1 49741U 21115T   22200.84038980  .00007876  00000-0  51210-3 0  9991,2 49741  53.2164 354.5585 0001230  57.6372 302.4739 15.08858642 34922,6917.823,95.436,540.539,538.8380000000002,0.0
49741.0,STARLINK-3244,PAYLOAD,2022-07-20 12:04:00,15.08859776,0.0001356,53.2165,351.5845,71.6588,288.4552,0.00040387,6.149e-05,0.0,0 STARLINK-3244,1 49741U 21115T   22201.50278582  .00006149  00000-0  40387-3 0  9994,2 49741  53.2165 351.5845 0001356  71.6588 288.4552 15.08859776 36133,6917.82,95.436,540.623,538.747,0.0
49741.0,STARLINK-3244,PAYLOAD,2022-07-20 13:39:23,15.0885856,0.0001489,53.2162,351.2885,53.4454,306.6675,0.00034424,5.198e-05,0.0,0 STARLINK-3244,1 49741U 21115T   22201.56902516  .00005198  00000-0  34424-3 0  9999,2 49741  53.2162 351.2885 0001489  53.4454 306.6675 15.08858560 35035,6917.824000000001,95.436,540.719,538.659,0.0
49741.0,STARLINK-3244,PAYLOAD,2022-07-20 20:00:55,15.08848267,0.0001708,53.216,350.0973,55.99,304.1254,-0.00013511,-2.438e-05,0.0,0 STARLINK-3244,1 49741U 21115T   22201.83397928 -.00002438  00000-0 -13511-3 0  9994,2 49741  53.2160 350.0973 0001708  55.9900 304.1254 15.08848267 35078,6917.855,95.437,540.9019999999998,538.539,0.0
49741.0,STARLINK-3244,PAYLOAD,2022-07-21 02:22:28,15.08845516,0.0001567,53.2164,348.908,61.6804,298.4347,-0.00012996,-2.356e-05,0.0,0 STARLINK-3244,1 49741U 21115T   22202.09894314 -.00002356  00000-0 -12996-3 0  9999,2 49741  53.2164 348.9080 0001567  61.6804 298.4347 15.08845516 36227,6917.864000000001,95.437,540.813,538.644,0.0
49741.0,STARLINK-3244,PAYLOAD,2022-07-21 10:19:25,15.08832308,0.0001648,53.2165,347.4224,79.9624,280.1554,-0.00024996,-4.263e-05,0.0,0 STARLINK-3244,1 49741U 21115T   22202.43015183 -.00004263  00000-0 -24996-3 0  9998,2 49741  53.2165 347.4224 0001648  79.9624 280.1554 15.08832308 35169,6917.904,95.438,540.909,538.629,0.0
49741.0,STARLINK-3244,PAYLOAD,2022-07-21 18:16:21,15.08820365,0.0001378,53.2163,345.9351,58.5518,301.5609,-0.00016535,-2.917e-05,0.0,0 STARLINK-3244,1 49741U 21115T   22202.76135825 -.00002917  00000-0 -16535-3 0  9994,2 49741  53.2163 345.9351 0001378  58.5518 301.5609 15.08820365 35211,6917.94,95.439,540.759,538.852,0.0
49741.0,STARLINK-3244,PAYLOAD,2022-07-22 02:13:17,15.08817683,0.0001301,53.2162,344.4478,60.6838,299.4284,0.00040481,6.157e-05,0.0,0 STARLINK-3244,1 49741U 21115T   22203.09256447  .00006157  00000-0  40481-3 0  9990,2 49741  53.2162 344.4478 0001301  60.6838 299.4284 15.08817683 35267,6917.949000000001,95.439,540.714,538.914,0.0
49741.0,STARLINK-3244,PAYLOAD,2022-07-22 16:31:46,15.08833229,0.0001369,53.2158,341.7721,58.5575,301.5551,0.00080211,0.00012498,0.0,0 STARLINK-3244,1 49741U 21115T   22203.68873024  .00012498  00000-0  80211-3 0  9991,2 49741  53.2158 341.7721 0001369  58.5575 301.5551 15.08833229 36460,6917.901,95.438,540.7130000000002,538.819,0.0
49741.0,STARLINK-3244,PAYLOAD,2022-07-23 13:11:46,15.08852932,0.0001406999999999,53.2158,337.9065,59.0455,301.0675,0.00067029,0.000104,0.0,0 STARLINK-3244,1 49741U 21115T   22204.54984707  .00010400  00000-0  67029-3 0  9991,2 49741  53.2158 337.9065 0001407  59.0455 301.0675 15.08852932 35489,6917.840999999999,95.437,540.679,538.7330000000002,0.0
49741.0,STARLINK-3244,PAYLOAD,2022-07-23 17:57:56,15.08850502,0.0001418,53.2158,337.0148,61.0127,299.1007,0.00049716,7.635e-05,0.0,0 STARLINK-3244,1 49741U 21115T   22204.74856734  .00007635  00000-0  49716-3 0  9990,2 49741  53.2158 337.0148 0001418  61.0127 299.1007 15.08850502 36627,6917.848000000001,95.437,540.694,538.732,0.0
49741.0,STARLINK-3244,PAYLOAD,2022-07-24 01:54:51,15.08843275,0.0001344,53.2154,335.5276,60.6064,299.5062,0.00013479,1.858e-05,0.0,0 STARLINK-3244,1 49741U 21115T   22205.07976719  .00001858  00000-0  13479-3 0  9991,2 49741  53.2154 335.5276 0001344  60.6064 299.5062 15.08843275 36670,6917.87,95.437,540.665,538.806,0.0
49741.0,STARLINK-3244,PAYLOAD,2022-07-24 13:02:33,15.08850312,0.0001458,53.2158,333.446,61.1878,298.926,0.00027696,4.124e-05,0.0,0 STARLINK-3244,1 49741U 21115T   22205.54344429  .00004124  00000-0  27696-3 0  9995,2 49741  53.2158 333.4460 0001458  61.1878 298.9260 15.08850312 35639,6917.849,95.437,540.722,538.705,0.0
49741.0,STARLINK-3244,PAYLOAD,2022-07-24 17:48:42,15.08855257,0.0001479,53.2155,332.5536,60.7331,299.3809,0.00045035,6.890000000000001e-05,0.0,0 STARLINK-3244,1 49741U 21115T   22205.74216227  .00006890  00000-0  45035-3 0  9990,2 49741  53.2155 332.5536 0001479  60.7331 299.3809 15.08855257 35662,6917.834,95.437,540.722,538.6759999999998,0.0
49741.0,STARLINK-3244,PAYLOAD,2022-07-25 08:07:11,15.08826375,0.0001304,53.2154,329.8761,63.5202,296.5924,-0.00030636,-5.158e-05,0.0,0 STARLINK-3244,1 49741U 21115T   22206.33833000 -.00005158  00000-0 -30636-3 0  9999,2 49741  53.2154 329.8761 0001304  63.5202 296.5924 15.08826375 36864,6917.922,95.438,540.689,538.885,0.0
49741.0,STARLINK-3244,PAYLOAD,2022-07-25 19:14:54,15.08829891,0.0001514,53.2156,327.7957,60.8396,299.2748,-2.4045e-05,-6.71e-06,0.0,0 STARLINK-3244,1 49741U 21115T   22206.80201492 -.00000671  00000-0 -24045-4 0  9998,2 49741  53.2156 327.7957 0001514  60.8396 299.2748 15.08829891 35822,6917.911,95.438,540.8240000000002,538.729,0.0
49741.0,STARLINK-3244,PAYLOAD,2022-07-26 12:44:09,15.08832239,0.0001549,53.2158,324.5248,60.4697,299.645,0.000429,6.545e-05,0.0,0 STARLINK-3244,1 49741U 21115T   22207.53066215  .00006545  00000-0  42900-3 0  9994,2 49741  53.2158 324.5248 0001549  60.4697 299.6450 15.08832239 35936,6917.904,95.438,540.841,538.698,0.0
49741.0,STARLINK-3244,PAYLOAD,2022-07-26 19:05:41,15.0883475,0.0001581,53.216,323.3354,59.9523,300.1626,0.00049348,7.573e-05,0.0,0 STARLINK-3244,1 49741U 21115T   22207.79562386  .00007573  00000-0  49348-3 0  9997,2 49741  53.2160 323.3354 0001581  59.9523 300.1626 15.08834750 35978,6917.896,95.438,540.855,538.668,0.0
49741.0,STARLINK-3244,PAYLOAD,2022-07-27 14:10:19,15.08848393,0.0001592,53.2162,319.7668,60.511,299.6041,0.00051422,7.907e-05,0.0,0 STARLINK-3244,1 49741U 21115T   22208.59050187  .00007907  00000-0  51422-3 0  9994,2 49741  53.2162 319.7668 0001592  60.5110 299.6041 15.08848393 37208,6917.855,95.437,540.821,538.618,0.0
49741.0,STARLINK-3244,PAYLOAD,2022-07-27 18:56:28,15.08850995,0.0001606,53.2163,318.8748,60.5051,299.6101,0.00048199,7.393e-05,0.0,0 STARLINK-3244,1 49741U 21115T   22208.78922042  .00007393  00000-0  48199-3 0  9999,2 49741  53.2163 318.8748 0001606  60.5051 299.6101 15.08850995 36126,6917.847,95.437,540.823,538.601,0.0
49741.0,STARLINK-3244,PAYLOAD,2022-07-28 10:50:19,15.08854051,0.0001393,53.2162,315.9011,67.8102,292.3038,0.00030537,4.577e-05,0.0,0 STARLINK-3244,1 49741U 21115T   22209.45161501  .00004577  00000-0  30537-3 0  9997,2 49741  53.2162 315.9011 0001393  67.8102 292.3038 15.08854051 36223,6917.837,95.437,540.6659999999998,538.739,0.0
